[{"OBJECT_NAME":"LEMUR-2-GREENBERG","OBJECT_ID":"2017-042N","EPOCH":"2026-03-09T11:05:17.256192","MEAN_MOTION":15.27971352,"ECCENTRICITY":0.00091572,"INCLINATION":97.3781,"RA_OF_ASC_NODE":249.8007,"ARG_OF_PERICENTER":4.0119,"MEAN_ANOMALY":356.1192,"EPHEMERIS_TYPE":0,"CLASSIFICATION_TYPE":"U","NORAD_CAT_ID":42837,"ELEMENT_SET_NO":999,"REV_AT_EPOCH":47314,"BSTAR":0.00072539172,"MEAN_MOTION_DOT":0.00019778,"MEAN_MOTION_DDOT":0},{"OBJECT_NAME":"STARLINK-2630","OBJECT_ID":"2021-038AE","EPOCH":"2026-03-09T22:23:09.826368","MEAN_MOTION":15.30188975,"ECCENTRICITY":0.00013437,"INCLINATION":53.1584,"RA_OF_ASC_NODE":346.6562,"ARG_OF_PERICENTER":89.6533,"MEAN_ANOMALY":270.4622,"EPHEMERIS_TYPE":0,"CLASSIFICATION_TYPE":"U","NORAD_CAT_ID":48381,"ELEMENT_SET_NO":999,"REV_AT_EPOCH":26726,"BSTAR":-0.00012701387,"MEAN_MOTION_DOT":-4.118e-5,"MEAN_MOTION_DDOT":0}]
